{
"type": "FeatureCollection",
"name": "boundary",
"crs": { "type": "name", "properties": { "name": "urn:ogc:def:crs:OGC:1.3:CRS84" } },
"features": [
{ "type": "Feature", "properties": { "name": "ขอบเขตบางกระเจ้า", "source_file": "dcf2ab9a-e4e2-4ec0-8ae7-6fcf9898feb3.png", "confidence": "moderate" }, "geometry": { "type": "Polygon", "coordinates": [ [ [ 100.5591857120843, 13.70498735207129 ], [ 100.554118745897171, 13.703705407523083 ], [ 100.553793457438957, 13.70333957592713 ], [ 100.553284295617374, 13.699558910080414 ], [ 100.554513250904932, 13.690038976300619 ], [ 100.552603458066173, 13.677805937767912 ], [ 100.546311201430441, 13.670067310114645 ], [ 100.539357461006304, 13.668113537102927 ], [ 100.539965904692991, 13.662381360526219 ], [ 100.54556583568619, 13.663029725840101 ], [ 100.552262622153236, 13.658625928156372 ], [ 100.563071171682623, 13.657717198854687 ], [ 100.576595120994668, 13.668720363870955 ], [ 100.586152776523221, 13.681850203513239 ], [ 100.58759472499996, 13.688252426068729 ], [ 100.585314098411885, 13.693207022389515 ], [ 100.581781702792668, 13.696067490309646 ], [ 100.5591857120843, 13.70498735207129 ] ] ] } }
]
}
