<?xml version="1.0" encoding="UTF-8"?>
<kml xmlns="http://www.opengis.net/kml/2.2"><Document><Placemark><name>ขอบเขตบางกระเจ้า</name><description>ตัวอย่างสกัดจากเส้นขอบสีแดงและปรับตำแหน่งด้วยค่ากริดขอบแผนที่ ต้องตรวจสอบกับข้อมูลควบคุมอิสระก่อนใช้งานทางการ</description><Style><LineStyle><color>ff0000ff</color><width>3</width></LineStyle><PolyStyle><color>330000ff</color></PolyStyle></Style><Polygon><outerBoundaryIs><LinearRing><coordinates>100.5591857121,13.7049873521,0 100.5541187459,13.7037054075,0 100.5537934574,13.7033395759,0 100.5532842956,13.6995589101,0 100.5545132509,13.6900389763,0 100.5526034581,13.6778059378,0 100.5463112014,13.6700673101,0 100.5393574610,13.6681135371,0 100.5399659047,13.6623813605,0 100.5455658357,13.6630297258,0 100.5522626222,13.6586259282,0 100.5630711717,13.6577171989,0 100.5765951210,13.6687203639,0 100.5861527765,13.6818502035,0 100.5875947250,13.6882524261,0 100.5853140984,13.6932070224,0 100.5817817028,13.6960674903,0 100.5591857121,13.7049873521,0</coordinates></LinearRing></outerBoundaryIs></Polygon></Placemark></Document></kml>